CCSDS_OEM_VERS = 2.0
CREATION_DATE = 2026-06-28T12:00:00.000
ORIGINATOR = SIDEREON TEST
COMMENT Annotated OEM fixture for a GPS navigation spacecraft.

META_START
OBJECT_NAME = GPS BIIRM-8
OBJECT_ID = 2005-038A
CENTER_NAME = EARTH
REF_FRAME = EME2000
TIME_SYSTEM = GPS
START_TIME = 2026-06-28T00:00:00.000
STOP_TIME = 2026-06-28T00:30:00.000
USEABLE_START_TIME = 2026-06-28T00:00:00.000
USEABLE_STOP_TIME = 2026-06-28T00:30:00.000
INTERPOLATION = LAGRANGE
INTERPOLATION_DEGREE = 5
META_STOP

COMMENT Epoch X Y Z X_DOT Y_DOT Z_DOT with one acceleration-bearing sample.
2026-06-28T00:00:00.000 15600.123456 -21000.654321 20100.111111 2.102345 1.305678 -2.987654
2026-06-28T00:15:00.000 17450.223456 -19750.754321 17210.211111 2.008765 1.504321 -3.112345
2026-06-28T00:30:00.000 19200.323456 -18200.854321 14200.311111 1.812345 1.701234 -3.201234 0.000001 -0.000002 0.000003

COVARIANCE_START
EPOCH = 2026-06-28T00:15:00.000
COV_REF_FRAME = RTN
CX_X = 0.0001
CY_X = 0
CY_Y = 0.0002
CZ_X = 0
CZ_Y = 0
CZ_Z = 0.0003
CX_DOT_X = 0
CX_DOT_Y = 0
CX_DOT_Z = 0
CX_DOT_X_DOT = 0.00000001
CY_DOT_X = 0
CY_DOT_Y = 0
CY_DOT_Z = 0
CY_DOT_X_DOT = 0
CY_DOT_Y_DOT = 0.00000002
CZ_DOT_X = 0
CZ_DOT_Y = 0
CZ_DOT_Z = 0
CZ_DOT_X_DOT = 0
CZ_DOT_Y_DOT = 0
CZ_DOT_Z_DOT = 0.00000003
COVARIANCE_STOP
